Id,Institution,"Student Residence","Street Number and Name",City,Province,"Postal Code"
3,"Albert College","Baker House","160 Dundas Street West",Belleville,ON,"K8P 1A6"
4,"Albert College","Graham Hall","160 Dundas Street West",Belleville,ON,"K8P 1A6"
5,"Albert College","Victoria Manor","28 Highland Avenue",Belleville,ON,"K8P 3P9"
6,"Alfred Campus of the University of Guelph",,"PO Box 580, 31 St-Paul Street",Alfred,ON,"K0B 1A0"
7,"Algoma University","Algoma Dormitory","1520 Queen Street East","Sault Ste. Marie",ON,"P6A 2G4"
8,"Algoma University","Spirit Village Residence","1520 Queen Street East","Sault Ste. Marie",ON,"P6A 2G4"
9,"Algonquin College","Phase I, II, III","1385 Woodroffe Avenue",Nepean,ON,"K2G 1V8"
10,"Al-Rashid Islamic Institute",,"18345 Country Road 2",Cornwall,ON,"K6H 5R5"
11,"Appleby College","Baillie/Colley House","540 Lakeshore Road West",Oakville,ON,"L6K 3P1"
12,"Appleby College","Powell House","540 Lakeshore Road West",Oakville,ON,"L6K 3P1"
13,"Appleby College","Walker House","540 Lakeshore Road West",Oakville,ON,"L6K 3P1"
14,"Ashbury College","Boy's Residence","212 Springfiled Road",Ottawa,ON,"K1M 0K9"
15,"Ashbury College","Gillan Residence","334 Mariposa Avenue",Ottawa,ON,"K1M 0T3"
16,"Ashbury College","Maple Residence","1 Elmdale Lane",Ottawa,ON,"K1M 2H4"
17,"Branksome Hall",Qwe,"1 Elm Avenue",Toronto,ON,"M4W 1N4"
18,"Branksome Hall",,"3 Elm Avenue",Toronto,ON,"M4W 1N4"
19,"Branksome Hall",,"4 Elm Avenue",Toronto,ON,"M4W 1N4"
20,"Brock University",DeCew,"1812 Sir Isaac Way","St. Catharines",ON,"L2S 3A1"
21,"Brock University",Earp,"1812 Sir Isaac Way","St. Catharines",ON,"L2S 3A1"
22,"Brock University",Lowenberger,"1812 Sir Isaac Way","St. Catharines",ON,"L2S 3A1"
23,"Brock University",QuarryView,"51 John Macdonnel Street","St. Catharines",ON,"L2T 4E4"
24,"Brock University",Vallee,"1812 Sir Isaac Way","St. Catharines",ON,"L2S 3A1"
25,"Brock University",Village,"1812 Sir Isaac Way","St. Catharines",ON,"L2S 3A1"
26,"Brock University","Gateway Suites","49 John Macdonnel Street","St. Catharines",ON,"L2T 4E4"
27,"Bronto College",,"88 Bronte College Court",Mississauga,ON,"L5B 1M9"
28,"Cambrian College of Applied Arts and Technology",Dorms,"1390 Barrydowne Road",Sudbury,ON,"P3A 6B9"
29,"Cambrian College of Applied Arts and Technology",Townhouses,"1390 Barrydowne Road",Sudbury,ON,"P3A 6B9"
30,"Canada's National Ballet School",,"105 Maitland Street",Toronto,ON,"M4K 1G5"
31,"Canadore College",,"100 College Drive","North Bay",ON,"P1B 8G4"
32,"Canadore College",,"15 College Drive","North Bay",ON,"P1B 8L7"
33,"Carleton University","Dundas/Stormont House","1125 Colonel By Drive",Ottawa,ON,"K1S 5B6"
34,"Carleton University","Frontenac House","1125 Colonel By Drive",Ottawa,ON,"K1S 5B6"
35,"Carleton University","Glengarry House","1125 Colonel By Drive",Ottawa,ON,"K1S 5B6"
36,"Carleton University","Grenville House","1125 Colonel By Drive",Ottawa,ON,"K1S 5B6"
37,"Carleton University","Lanark House","1125 Colonel By Drive",Ottawa,ON,"K1S 5B6"
38,"Carleton University","Leeds Residence","1125 Colonel By Drive",Ottawa,ON,"K1S 5B6"
39,"Carleton University","Lennox and Addington House","1125 Colonel By Drive",Ottawa,ON,"K1S 5B6"
40,"Carleton University","Prescott Residence","1125 Colonel By Drive",Ottawa,ON,"K1S 5B6"
41,"Carleton University","Renfrew House","1125 Colonel By Drive",Ottawa,ON,"K1S 5B6"
42,"Carleton University","Russell House","1125 Colonel By Drive",Ottawa,ON,"K1S 5B6"
43,"Centennial College",,"940 Progress Avenue",Scarborough,ON,"M1G 3T5"
44,"College Boréal",,"21 Lasalle Boulevard",Sudbury,ON,"P3A 6B1"
45,"Conestoga College Institute of Technology and Advance Learning","Doon Campus","99 Conestoga College Boulevard",Kitchener,ON,"N2P 2N5"
46,"Confederation College","Sibley Hall","PO Box 398, William Street","Thunder Bay",ON,"P7C 4W1"
47,"Confederation College","Spruce House","2016 Red Lake Road, Box 398","Thunder Bay",ON,"P7C 4W1"
48,"Confederation College","Cedar House","2016 Red Lake Road, Box 398","Thunder Bay",ON,"P7C 4W1"
49,"Durham College","Simcoe Residence","1910 Simcoe Street North",Oshawa,ON,"L1H 4Y3"
50,"Durham College","South Village Residence","32 Commencement Drive",Oshawa,ON,"L1H 8G3"
51,"Emmanuel Bible College","Lehman Hall","100 Fergus Avenue",Kitchener,ON,"N2A 2H2"
52,"Emmanuel Bible College","Warder Hall","100 Fergus Avenue",Kitchener,ON,"N2A 2H2"
53,"Emmanuel Bible College","Wideman Hall","100 Fergus Avenue",Kitchener,ON,"N2A 2H2"
54,"Faithway Baptist College of Canada","Ladies Dormitories","1964 Salem Road",Ajax,ON,"L1T 4V3"
55,"Faithway Baptist College of Canada","Men Dormitories","1964 Salem Road",Ajax,ON,"L1T 4V3"
56,"Fanshawe College","Falcon House","1001 Fanshawe College Boulevard",London,ON,"N5Y 5R6"
57,"Fanshawe College","Kestrel Court","900 Fanshawa College Boulevard",London,ON,"N5V 3C5"
58,"Fanshawe College","Merlin House","1001 Fanshawe College Boulevard",London,ON,"N5Y 5R6"
59,"Fanshawe College","Peregrine House","1001 Fanshawe College Boulevard",London,ON,"N5Y 5R6"
60,"Georgian College","Student Residence","101 Georgian Drive",Barrie,ON,"L4M 6Z5"
61,"Havergal College",,"1451 Avenue Road","North York",ON,"M5N 2H9"
62,"Heritage College & Seminary",,"175 Holiday Inn Drive",Cambridge,ON,"N3C 3T2"
63,"Holy Family Achievement School of Académie Ste-Cécile International School",,"925 Cousineau Road",Windsor,ON,"N9G 1V8"
64,"Humber College","Lakeshore Campus Building R","3199 Lakeshore Boulevard West",Etobicoke,ON,"M8V 1K8"
65,"Humber College","North Campus Building S","201, 203 Humber College Boulevard",Etobicoke,ON,"M9W 5L7"
66,"Humber College","North Campus Building T","201, 203 Humber College Boulevard",Etobicoke,ON,"M9W 5L7"
67,"Institute for Advance Talmudic Study",,"7 Fraserwood Avenue",Toronto,ON,"M6B 2N3"
68,"Institute for Advance Talmudic Study",,"423 Lawrence Avenue West",Toronto,ON,"M5M 1C3"
69,"J. Addison School",,"2 Valleywood Drive",Markham,ON,"L3R 8H3"
70,"Kingway College","Bona Vista Hall","1220 Leland Road",Oshawa,ON,"L1K 2H4"
71,"Kingway College","Ryan Hall","125 Kingsway College Drive",Oshawa,ON,"L1K 2H4"
72,"La Cité collégiale","La Résidence de La Cité collégiale","400 Den Haag Street",Ottawa,ON,"K1K 4W8"
73,"Lakefield College School","Cooper House","4391 County Road 29",Lakefield,ON,"K0L 2H0"
74,"Lakefield College School","Grove House","4391 County Road 29",Lakefield,ON,"K0L 2H0"
75,"Lakefield College School","Lower Colebrook House","4391 County Road 29",Lakefield,ON,"K0L 2H0"
76,"Lakefield College School","Matthews House","4391 County Road 29",Lakefield,ON,"K0L 2H0"
77,"Lakefield College School","Memorial House","4391 County Road 29",Lakefield,ON,"K0L 2H0"
78,"Lakefield College School","Moodie House","4391 County Road 29",Lakefield,ON,"K0L 2H0"
79,"Lakefield College School","Ondaatje House","4391 County Road 29",Lakefield,ON,"K0L 2H0"
80,"Lakefield College School","Rashleigh House","4391 County Road 29",Lakefield,ON,"K0L 2H0"
81,"Lakefield College School","Ryder House","4391 County Road 29",Lakefield,ON,"K0L 2H0"
82,"Lakefield College School","Upper Colebrook House","4391 County Road 29",Lakefield,ON,"K0L 2H0"
83,"Lakefield College School","Wadsworth House","4391 County Road 29",Lakefield,ON,"K0L 2H0"
84,"Lakefield College School",Uplands,"4391 County Road 29",Lakefield,ON,"K0L 2H0"
85,"Lakehead University Thunder Bay",Avila,"670 Reaume Street","Thunder Bay",ON,"P7B 5E1"
86,"Lakehead University Thunder Bay",Bartley,"955 Oliver Road","Thunder Bay",ON,"P7B 5E1"
87,"Lakehead University Thunder Bay",Prettie,"955 Oliver Road","Thunder Bay",ON,"P7B 5E1"
88,"Lakehead University Thunder Bay","Residence Townhouse","955 Oliver Road","Thunder Bay",ON,"P7B 5E1"
89,"Lakehead University Thunder Bay","Student Housing Apartment 1","955 Oliver Road","Thunder Bay",ON,"P7B 5E1"
90,"Lakehead University Thunder Bay","Student Housing Apartment 2","955 Oliver Road","Thunder Bay",ON,"P7B 5E1"
91,"Lakehead University Orillia","Orillia Residence","500 University Drive",Orillia,ON,"L3V 0B9"
92,"Lambton College",,"1457, 1485 London Road South",Sarnia,ON,"N7S 6K4"
93,"Laurentian University","Huntington College","935 Ramsey Lake Road",Sudbury,ON,"P3E 2C6"
94,"Laurentian University","Laurentian University","179 John Street",Sudbury,ON,"P3E 1P5"
95,"Laurentian University","Married Students' Apartments","935 Ramsey Lake Road",Sudbury,ON,"P3E 2C6"
96,"Laurentian University","Matte Residence","935 Ramsey Lake Road",Sudbury,ON,"P3E 2C6"
97,"Laurentian University","Single Students' Apartments","935 Ramsey Lake Road",Sudbury,ON,"P3E 2C6"
98,"Laurentian University","Thornloe College","935 Ramsey Lake Road",Sudbury,ON,"P3E 2C6"
99,"Laurentian University","University College","935 Ramsey Lake Road",Sudbury,ON,"P3E 2C6"
100,"Laurentian University","West Residence","935 Ramsey Lake Road",Sudbury,ON,"P3E 2C6"
101,"Laurentian University","East Residence","935 Ramsey Lake Road",Sudbury,ON,"P3E 2C6"
102,"Loyalist College","Building D","284a Wallbridge-Loyalist Road",Belleville,ON,"K8N 5B9"
103,"Loyalist College","Building E","284a Wallbridge-Loyalist Road",Belleville,ON,"K8N 5B9"
104,"Loyalist College","McFarlane Hall","284a Wallbridge-Loyalist Road",Belleville,ON,"K8N 5B9"
105,"Loyalist College","Morton Hall","284a Wallbridge-Loyalist Road",Belleville,ON,"K8N 5B9"
106,"Loyalist College","Reilly Hall","284a Wallbridge-Loyalist Road",Belleville,ON,"K8N 5B9"
107,"McMaster University","Bates Residence","1280 Main Street West",Hamilton,ON,"L8S 4P1"
108,"McMaster University","Brandon Hall","1280 Main Street West",Hamilton,ON,"L8S 4N8"
109,"McMaster University","Edwards Hall","1280 Main Street West",Hamilton,ON,"L8S 4N8"
110,"McMaster University","Hedden Hall","1280 Main Street West",Hamilton,ON,"L8S 4M6"
111,"McMaster University","Les Prince","1280 Main Street West",Hamilton,ON,"L8S 4N8"
112,"McMaster University","Mary E. Keyes","1280 Main Street West",Hamilton,ON,"L8S 4S5"
113,"McMaster University","Mathews Hall","1280 Main Street West",Hamilton,ON,"L8S 4M6"
114,"McMaster University","McKay Hall","1280 Main Street West",Hamilton,ON,"L8S 4M6"
115,"McMaster University","Moulton Hall","1280 Main Street West",Hamilton,ON,"L8S 4M6"
116,"McMaster University","Wallingford Hall","1280 Main Street West",Hamilton,ON,"L8S 4M6"
117,"McMaster University","Whidden Hall","1280 Main Street West",Hamilton,ON,"L8S 4N7"
118,"McMaster University","Woodstock Hall","1280 Main Street West",Hamilton,ON,"L8S 4N9"
119,"Michener Institution for Applied Health Science","Schatz Hall","153 McCaul Street",Toronto,ON,"M5T 1W6"
120,"Mohawk College",,"245 Fennell Avenue West",Hamilton,ON,"L9C 7V7"
121,"Niagara Christian Community of Schools",,"2619 Niagara Parkway","Fort Erie",ON,"L2A 5M4"
122,"Niagara Christian Community of Schools",,"2681 Niagara Parkway","Fort Erie",ON,"L2A 5M4"
123,"Niagara College",,"110 Niagara College Boulevard",Welland,ON,"L3C 7L4"
124,"Niagara College",,"137 Taylor Road",Niagara-on-the-Lake,ON,"L0S 1J0"
125,"Niagara Parks Commission School of Horticulture",,"2565 Niagara Parkway","Niagara Falls",ON,"L2E 6T2"
126,"Nipissing University","Chancellors House Residence","900 Gormanville Road","North Bay",ON,"P1B 9V2"
127,"Nipissing University","Founders House Residence","1 College Drive","North Bay",ON,"P1B 9T4"
128,"Nipissing University","Governor's House Residence","100 College Drive","North Bay",ON,"P1B 8L7"
129,"Nipissing University","Townhouse Residence","100 College Drive","North Bay",ON,"P1B 8L7"
130,"Northern College of Applied Arts and Technology","Haileybury Campus","640 Latchford Street",Haileybury,ON,"P0J 1K0"
131,"Northern College of Applied Arts and Technology","Kirkland Lake Campus","4715 Highway 101 East","Kirkland Lake",ON,"P2N 3L8"
132,"Northern College of Applied Arts and Technology","Moosonee Campus","PO Box 130, First Avenue",Moosonee,ON,"P0L 1Y0"
133,"Northern College of Applied Arts and Technology","Timmins Campus","4715 Highway 101 East","South Porcupine",ON,"P0N 1H0"
134,"Pickering College","Firth House","16945 Bayview Avenue",Newmarket,ON,"L3Y 4X2"
135,"Pickering College","New House","16945 Bayview Avenue",Newmarket,ON,"L3Y 4X2"
136,"Queen's University","Adelaide Hall","137 Stuart Street",Kingston,ON,"K7L 2V9"
137,"Queen's University","Angus House","535 Union Street",Kingston,ON,"K7L 2N9"
138,"Queen's University","Ban Righ Hall","10 Bader Lane",Kingston,ON,"K7L 3N8"
139,"Queen's University","Boucher House","535 Union Street",Kingston,ON,"K7L 2N9"
140,"Queen's University","Bryce House","535 Union Street",Kingston,ON,"K7L 2N9"
141,"Queen's University","Chown Hall","175 Stuart Street",Kingston,ON,"K7L 2V9"
142,"Queen's University","Curran House","535 Union Street",Kingston,ON,"K7L 2N9"
143,"Queen's University","Douglas House","535 Union Street",Kingston,ON,"K7L 2N9"
144,"Queen's University","Gordon House Brockington House","21 Collingwood Street",Kingston,ON,"K7L 3N6"
145,"Queen's University","Graduate Residence","87 Union Street",Kingston,ON,"K7L 2N9"
146,"Queen's University","Harkness Hall","329 Earl Street",Kingston,ON,"K7L 2J4"
147,"Queen's University","Healey House","535 Union Street",Kingston,ON,"K7L 2N9"
148,"Queen's University","Jean Royce Hall (Phase I)","535 Union Street",Kingston,ON,"K7L 2N9"
149,"Queen's University","Jean Royce Hall (Phase II)","537 Union Street",Kingston,ON,"K7L 2N9"
150,"Queen's University","John Orr Tower Apartments","244 Sir John A. MacDonald Boulevard",Kingston,ON,"K7M 5W9"
151,"Queen's University","Laird House","535 Union Street",Kingston,ON,"K7L 2N9"
152,"Queen's University","Leggett Hall","194 Stuart Street",Kingston,ON,"K7L 2V9"
153,"Queen's University","Leonard Hall","128 Queen's Crescent",Kingston,ON,"K7L 2N9"
154,"Queen's University","McNeill House","40 Lower Albert Street",Kingston,ON,"K7L 2N9"
155,"Queen's University","Miller House","537 Union Street",Kingston,ON,"K7L 2N9"
156,"Queen's University","Morris Hall","12 Lower Albert Street",Kingston,ON,"K7L 2N9"
157,"Queen's University","Roy House","537 Union Street",Kingston,ON,"K7L 2N9"
158,"Queen's University","Shortliffe House","537 Union Street",Kingston,ON,"K7L 2N9"
159,"Queen's University","Tracy House","537 Union Street",Kingston,ON,"K7L 2N9"
160,"Queen's University","Trotter House","537 Union Street",Kingston,ON,"K7L 2N9"
161,"Queen's University","Victoria Hall","75 Queen's Crescent",Kingston,ON,"K7L 2N9"
162,"Queen's University","Waldron Tower","17 King Street West",Kingston,ON,"K7L 2N9"
163,"Queen's University","Watts Hall","23 Lower Albert Street",Kingston,ON,"K7L 2N9"
164,"Queen's University","David C. Smith House","222 Stuart Street",Kingston,ON,"K7L 2W1"
165,"Queen's University","Brant House","28 Albert Street",Kingston,ON,"K7L 0E6"
166,"Redeemer University College","Augustine Hall","777 Garner Road East",Ancaster,ON,"L9K 1J4"
167,"Redeemer University College","Augustine Hall","777 Garner Road East",Ancaster,ON,"L9K 1J4"
168,"Redeemer University College","Calvin Court","777 Garner Road East",Ancaster,ON,"L9K 1J4"
169,"Redeemer University College","Calvin Court","777 Garner Road East",Ancaster,ON,"L9K 1J4"
170,"Redeemer University College","Cranmer Court","777 Garner Road East",Ancaster,ON,"L9K 1J4"
171,"Redeemer University College","Cranmer Court","723 Garner Road East",Ancaster,ON,"L9G 3K9"
172,"Redeemer University College","Luther Court","777 Garner Road East",Ancaster,ON,"L9K 1J4"
173,"Redeemer University College","Luther Court","723 Garner Road East",Ancaster,ON,"L9G 3K9"
174,"Ridgetown Campus, University of Guelph","Ridgetown Campus","120 Main Street East",Ridgetown,ON,"N0P 2C0"
175,"Ridley College","Arthur Bishop East","PO Box 3013, 2 Ridley Road","St Catharines",ON,"L2S 7C3"
176,"Ridley College","Arthur Bishop West","PO Box 3013, 2 Ridley Road","St Catharines",ON,"L2S 7C3"
177,"Ridley College","Burgoyne House","PO Box 3013, 2 Ridley Road","St Catharines",ON,"L2S 7C3"
178,"Ridley College","Deans House","PO Box 3013, 2 Ridley Road","St Catharines",ON,"L2S 7C3"
179,"Ridley College","Gooderham House East","PO Box 3013, 2 Ridley Road","St Catharines",ON,"L2S 7C3"
180,"Ridley College","Gooderham House West","PO Box 3013, 2 Ridley Road","St Catharines",ON,"L2S 7C3"
181,"Ridley College","Leonard House","PO Box 3013, 2 Ridley Road","St Catharines",ON,"L2S 7C3"
182,"Ridley College","Mandeville House","PO Box 3013, 2 Ridley Road","St Catharines",ON,"L2S 7C3"
183,"Ridley College","Merrit North","PO Box 3013, 2 Ridley Road","St Catharines",ON,"L2S 7C3"
184,"Ridley College","Merrit South","PO Box 3013, 2 Ridley Road","St Catharines",ON,"L2S 7C3"
185,"Robert Land Academy","Brock Barracks","6727 South Chippawa Road",Wellandport,ON,"L0R 2J0"
186,"Robert Land Academy","Butler Barracks","6727 South Chippawa Road",Wellandport,ON,"L0R 2J0"
187,"Robert Land Academy","Brant Barracks","6727 South Chippawa Road",Wellandport,ON,"L0R 2J0"
188,"Robert Land Academy","Fitzgibbon Hall","6727 South Chippawa Road",Wellandport,ON,"L0R 2J0"
189,"Royal Military College","Building 23 Stone Frigate","19 Point Frederick Drive",Kingston,ON,"K7K 7B4"
190,"Royal Military College","Building 31 Fort Haldimand","24 Amiens Drive",Kingston,ON,"K7K 7B4"
191,"Royal Military College","Building 33 Fort LaSalle","20 Amiens Avenue",Kingston,ON,"K7K 7B4"
192,"Royal Military College","Building 34 Fort Champlain","1 Point Frederick Drive",Kingston,ON,"K7K 7B4"
193,"Royal Military College","Building 81 Fort Sauvé","1 Point Frederick Drive",Kingston,ON,"K7K 7B4"
194,"Royal Military College","Building 86 Fort Brant","5 Valour Drive",Kingston,ON,"K7K 7B4"
195,"Ryerson Polytechnic University","Pitman Hall","160 Mutual Street",Toronto,ON,"M5B 2M2"
196,"Ryerson Polytechnic University",,"137 Bond Street",Toronto,ON,"M5B 1Y2"
197,"Ryerson Polytechnic University",,"240 Jarvis Street",Toronto,ON,"M5B 2L1"
198,"Saint Paul University",,"150 Hazel Street",Ottawa,ON,"K1S 5T8"
199,"Sault College of Applied Arts and Technology","Ray Lawson Hall","443 Northern Avenue","Sault Ste. Marie",ON,"P6B 4J3"
200,"Seneca College","King Campus","13990 Dufferin Street","King City",ON,"L7B 1B3"
201,"Seneca College","Newnham Campus","1750 Finch Avenue East",Toronto,ON,"M2J 2X5"
202,"Sheridan College","Davis Campus","7897 McLaughlin Road",Brampton,ON,"L6Y 5H9"
203,"Sheridan College","Trafalgar Campus - Residence 1","1410 Trafalgar Road",Oakville,ON,"L6H 6W4"
204,"Sheridan College","Trafalgar Campus - Residence 2","1410 Trafalgar Road",Oakville,ON,"L6H 6W4"
205,"Sir Sanford Fleming College","Frost Campus","PO Box 5500, 1 Auk Trail",Lindsay,ON,"K9V 6G6"
206,"Sir Sanford Fleming College","Frost Residence","PO Box 5500, 1 Auk Trail",Lindsay,ON,"K9V 6G6"
207,"Sir Sanford Fleming College","Sutherland Campus","PO Box 4375, 1 Residence Court",Peterborough,ON,"K9K 2N7"
208,"Sir Sanford Fleming College","Sutherland Residence Village","PO Box 4375, 1 Residence Court",Peterborough,ON,"K9K 2N7"
209,"St. Andrew's College","Flavelle House","15800 Younge Street",Aurora,ON,"L4G 3H7"
210,"St. Andrew's College","Mcdonald House","15800 Younge Street",Aurora,ON,"L4G 3H7"
211,"St. Andrew's College","Memorial House","15800 Younge Street",Aurora,ON,"L4G 3H7"
212,"St. Andrew's College","Sifton House","15800 Younge Street",Aurora,ON,"L4G 3H7"
213,"St. Augustine's Seminary of Toronto",,"2661 Kingston Road",Toronto,ON,"M1M 1M3"
214,"St. Clair College","Windsor Campus","3995 Geraedts Drive",Windsor,ON,"N9G 3C3"
215,"St. Lawrence College","Brockville Campus Residence","60 Magedoma Boulevard",Brockville,ON,"K6V 7N7"
216,"St. Lawrence College","Cornwall Campus Residence","2 St. Lawrence Drive",Cornwall,ON,"K6H 4Z1"
217,"St. Lawrence College","Kingston Campus Residence","23 Country Club Drive",Kingston,ON,"K7M 9A4"
218,"St. Paul's University College","The Graduate Apartments","196 Westmount Road North",Waterloo,ON,"N2L 3G5"
219,"St. Peter's Seminary",,"1040 Waterloo Street",London,ON,"N6A 3Y1"
220,"St. Peter's Seminary",,"1070 Colborne Street",London,ON,"N6A 4B3"
221,"St. Philip's Seminary",,"182, 184, 186 Dunn Avenue",Toronto,ON,"M6K 2R9"
222,"St. Philip's Seminary",,"1360, 1362, 1364 King St West",Toronto,ON,"M6K 1H3"
223,"St. Vladimir Institute",,"620 Spadina Avenue",Toronto,ON,"M5S 2H4"
224,"The Bishop Strachan School",,"298 Lonsdale Road",Toronto,ON,"M4V 1X2"
225,"The Toronto Baptist Seminary and Bible College",,"12 Horticultural Avenue",Toronto,ON,"M5A 2P1"
226,"The Toronto Baptist Seminary and Bible College",,"14 Horticultural Avenue",Toronto,ON,"M5A 2P1"
227,"The Toronto Baptist Seminary and Bible College",,"16 Horticultural Avenue",Toronto,ON,"M5A 2P1"
228,"The Toronto Baptist Seminary and Bible College",,"18 Horticultural Avenue",Toronto,ON,"M5A 2P1"
229,"Toronto General Hospital",,"200 Elizabeth Street",Toronto,ON,"M5G 2C4"
230,"Trafalgar Castle",,"401 Reynolds Street",Whitby,ON,"L1N 3W9"
231,"Trent University","Catharine Parr Trail College","315 Dublin Street",Peterborough,ON,"K9H 03C"
232,"Trent University","Champlain Annex","1555 Water Street",Peterborough,ON,"K9H 0H6"
233,"Trent University","Champlain College","1770 West Bank Drive",Peterborough,ON,"K9L 1Z7"
234,"Trent University","Gzowski College","1 Gzowski Way",Peterborough,ON,"K9J 8S6"
235,"Trent University","Lady Eaton College","1755 West Bank Drive",Peterborough,ON,"K9L 1Z6"
236,"Trent University","Otonabee College","2151 East Bank Drive",Peterborough,ON,"K9L 1Z8"
237,"Trent University","Lady Eaton Annex","1633 Water Street",Peterborough,ON,"K9H 0C7"
238,"Trent University","Gzowski Annex","780 Argyle",Peterborough,ON,"K9H 5T2"
239,"Trinity College School",,"55 Deblaquire Street North","Port Hope",ON,"L1A 4K7"
240,"Tyndale University College and Seminary",,"3377 Bayview Avenue",Toronto,ON,"M2M 3S4"
241,"Université de Hearst","Part #60","PO Box 580, 60 - 9th Street",Hearst,ON,"P0L 1N0"
242,"University of Guelph","Building 106","346 Gordon Street",Guelph,ON,"N1G 2W1"
243,"University of Guelph","Building 157","31 University Avenue East",Guelph,ON,"N1G 2W1"
244,"University of Guelph","Building 170","23 University Avenue East",Guelph,ON,"N1G 2W1"
245,"University of Guelph","Building 185","5 College Avenue West",Guelph,ON,"N1G 2W1"
246,"University of Guelph","Building 199","7 University Avenue East",Guelph,ON,"N1G 2W1"
247,"University of Guelph","Dundas Hall","East Ring Road",Guelph,ON,"N1G 2W1"
248,"University of Guelph","East Village Townhouses","East Ring Road",Guelph,ON,"N1G 2W1"
249,"University of Guelph","Family Housing Residence #250","252 Stone Road West",Guelph,ON,"N1G 2W1"
250,"University of Guelph","Family Housing Residence #300","78 College Avenue West",Guelph,ON,"N1G 2W1"
251,"University of Guelph","Glengarry Hall","East Ring Road",Guelph,ON,"N1G 2W1"
252,"University of Guelph","Johnston Hall","Winegard Walk",Guelph,ON,"N1G 2W1"
253,"University of Guelph","Lambton Hall","Watson Lane",Guelph,ON,"N1G 2W1"
254,"University of Guelph","Lanark Hall","East Ring Road",Guelph,ON,"N1G 2W1"
255,"University of Guelph","Lennox Addington Hall","Lennox Lane",Guelph,ON,"N1G 2W1"
256,"University of Guelph","Maids Hall","Trent Lane",Guelph,ON,"N1G 2W1"
257,"University of Guelph","Maritime Hall","South Ring Road",Guelph,ON,"N1G 2W1"
258,"University of Guelph","Mills Hall","College Avenue",Guelph,ON,"N1G 2W1"
259,"University of Guelph","Mountain Hall","South Ring Road",Guelph,ON,"N1G 2W1"
260,"University of Guelph","Prairie Hall","South Ring Road",Guelph,ON,"N1G 2W1"
261,"University of Guelph","Watson Hall","Watson Lane",Guelph,ON,"N1G 2W1"
262,"University of Ottawa",Brooks,"85 - 95 Marie Curie",Ottawa,ON,"K1N 9N3"
263,"University of Ottawa",Brooks,"620 - 638 King Edward Ave",Ottawa,ON,"K1N 9N2"
264,"University of Ottawa",Brooks,"75 - 101 Louis Pasteur",Ottawa,ON,"KiN 9N1"
265,"University of Ottawa","Hyman Soloway","157 Laurier",Ottawa,ON,"K1N 1K5"
266,"University of Ottawa","Hyman Soloway","100 Thomas More",Ottawa,ON,"K1N 1E3"
267,"University of Ottawa","Le Blanc Hall","45 Louis Pasteur",Ottawa,ON,"K1N 9B2"
268,"University of Ottawa","Le Blanc Hall","90 University",Ottawa,ON,"K1N 1H3"
269,"University of Ottawa",Marchard,"110 University",Ottawa,ON,"K1N 9A8"
270,"University of Ottawa",Stanton,"100 University",Ottawa,ON,"K1N 9A7"
271,"University of Ottawa","Thompson Hall","45 University",Ottawa,ON,"K1N 9B1"
272,"University of Ottawa",Rideau,"290 Rideau",Ottawa,ON,"K1N 5Y3"
273,"University of Ottawa",Henderson,"202 Henderson",Ottawa,ON,"K1N 7P6"
274,"University of Ottawa",Friel,"240 Friel ",Ottawa,ON,"K1N 1H6"
275,"University of Ottawa",Mann,"45 Mann",Ottawa,ON,"K1N 6Y7"
276,"University of Toronto","Annesley Hall Victoria University","95 Queen's Park Crescent",Toronto,ON,"M5S 2C7"
277,"University of Toronto","Upper Burwash Hall, Victoria University","89 Charles Street West",Toronto,ON,"M5S 1K6"
278,"University of Toronto","Chestnut Residence","89 Chestnut Street",Toronto,ON,"M5G 1R1"
279,"University of Toronto","Brennan Hall","81 St. Mary's Street",Toronto,ON,"M5S 1J4"
280,"University of Toronto","Elmsley Hall, St Michael's College","81 St. Mary's Street",Toronto,ON,"M5S 1J4"
281,"University of Toronto","Erindale Hall, University of Toronto","3359 Mississauga Road",Mississauga,ON,"L5L 1C6"
282,"University of Toronto","Fisher House, St Michael's College","81 St. Mary's Street",Toronto,ON,"M5S 1J4"
283,"University of Toronto","Graduate House","60 Harbord Street",Toronto,ON,"M5S 3L1"
284,"University of Toronto","House 2, St Michael's College","Elmsley Place, 81 St. Mary's Street",Toronto,ON,"M5S 1J4"
285,"University of Toronto","House 6, St Michael's College","Elmsley Place, 81 St. Mary's Street",Toronto,ON,"M5S 1J4"
286,"University of Toronto","House 8, St Michael's College","Elmsley Place, 81 St. Mary's Street",Toronto,ON,"M5S 1J4"
287,"University of Toronto","House 96, St Michael's College","Elmsley Place, 81 St. Mary's Street",Toronto,ON,"M5S 1J4"
288,"University of Toronto","Innis College","111 St. George Street",Toronto,ON,"M5S 2E8"
289,"University of Toronto","Joan Foley Hall, University of Toronto at Scarborough (UTSC)","1295 Military Trail",Toronto,ON,"M1C 1A3"
290,"University of Toronto","Knox College","59 St. George Street",Toronto,ON,"M5S 2E6"
291,"University of Toronto","Leacock Lane, University of Toronto at Mississauga (UTM)","3359 Mississauga Road",Mississauga,ON,"L5L 1C6"
292,"University of Toronto","Loretto College, St Michael's College","70 St. Mary's Street",Toronto,ON,"M5S 1J3"
293,"University of Toronto","Lower Burwash Hall, Victoria University","89 Charles Street West",Toronto,ON,"M5S 1K6"
294,"University of Toronto","MaGrath Valley, University of Toronto at Mississauga (UTM)","3359 Mississauga Road",Mississauga,ON,"L5L 1C6"
295,"University of Toronto","Margaret Addison, Hall Victoria University","140 Charles Street West",Toronto,ON,"M5S 1K9"
296,"University of Toronto","Massey College","4 Devonshire Place",Toronto,ON,"M5S 2E1"
297,"University of Toronto","McLuhan Court, University of Toronto at Mississauga (UTM)","3359 Mississauga Road",Mississauga,ON,"L5L 1C6"
298,"University of Toronto","More House, St Michael's College","81 St. Mary's Street",Toronto,ON,"M5S 1J4"
299,"University of Toronto","Morrison Hall, University College","75 St. George Street",Toronto,ON,"M5S 2E5"
300,"University of Toronto","45 Willcocks Residence, New College","45 Willcocks Residence",Toronto,ON,"M5S 1C7"
301,"University of Toronto","Oscar Peterson Hall, University of Toronto at Mississauga (UTM)","3359 Mississauga Road",Mississauga,ON,"L5L 1C6"
302,"University of Toronto","Putnam Place, University of Toronto at Mississauga (UTM)","3359 Mississauga Road",Mississauga,ON,"L5L 1C6"
303,"University of Toronto","Rowell Jackman Hall, Victoria University","85 Charles Street West",Toronto,ON,"M5S 1K5"
304,"University of Toronto","Roy Ivor Hall, University of Toronto at Mississauga (UTM)","3359 Mississauga Road",Mississauga,ON,"L5L 1C6"
305,"University of Toronto","Sam Sorbara Hall, St Michael's College","70 St Joseph Street",Toronto,ON,"M5S 3L5"
306,"University of Toronto","Schreiberwood, University of Toronto at Mississauga (UTM)","3359 Mississauga Road",Mississauga,ON,"L5L 1C6"
307,"University of Toronto","Sir Daniel Wilson, University College","73 St. George Street",Toronto,ON,"M5S 2E5"
308,"University of Toronto","St. Hilda's College, Trinity College","44 Devonshire Place",Toronto,ON,"M5S 2E2"
309,"University of Toronto","Student Family Housing","30 Charles Street West",Toronto,ON,"M4Y 1R5"
310,"University of Toronto","Student Family Housing","35 Charles Street West",Toronto,ON,"M4Y 1R6"
311,"University of Toronto","Teefy Hall, St Michael's College","57 Queen's Park Crescent East",Toronto,ON,"M5S 2C4"
312,"University of Toronto","Trinity College","6 Hoskin Avenue",Toronto,ON,"M5S 1H8"
313,"University of Toronto","University of Toronto at Mississauga (UTM)","3359 Mississauga Road",Mississauga,ON,"L5L 1C6"
314,"University of Toronto","North Residence, University of Toronto at Scarborough (UTSC)","1235 Military Trail",Toronto,ON,"M1C 1A3"
315,"University of Toronto","South Residence, University of Toronto at Scarborough (UTSC)","1295 Military Trail",Toronto,ON,"M1C 1A3"
316,"University of Toronto","Victoria University","73 Queen's Park Crescent",Toronto,ON,"M5S 1K7"
317,"University of Toronto","Victoria University","85 Charles Street West",Toronto,ON,"M5S 1K5"
318,"University of Toronto","Wetmore Hall New College","21 Classic Avenue",Toronto,ON,"M5S 2Z3"
319,"University of Toronto","Whitney Hall, University College","85 St. George Street",Toronto,ON,"M5S 2E5"
320,"University of Toronto","Wilson Hall, New College","40 Willcocks Street",Toronto,ON,"M5S 1C6"
321,"University of Toronto","Woodsworth College","321 Bloor Street West",Toronto,ON,"M5S 1S5"
322,"University of Toronto","Wycliffe College","5 Hoskin Avenue",Toronto,ON,"M5S 1H7"
323,"University of Waterloo","Beck Hall","108 Seagram Drive",Waterloo,ON,"N2L 3B9"
324,"University of Waterloo","Columbia Lake Village Townhouses (North and South)","350 Columbia Street West",Waterloo,ON,"N2L 6G8"
325,"University of Waterloo","Conrad Grebel","140 Westmount Road North",Waterloo,ON,"N2L 3G3"
326,"University of Waterloo","Conrad Grebel - Apartment Building","140 Westmount Road North",Waterloo,ON,"N2L 3G3"
327,"University of Waterloo","Conrad Grebel - Residence Building","140 Westmount Road North",Waterloo,ON,"N2L 3G3"
328,"University of Waterloo","Eby Hall","159 University Avenue West",Waterloo,ON,"N2L 3E8"
329,"University of Waterloo","Mackenzie King Village","PO Box 1666",Waterloo,ON,"N2J 4Z2"
330,"University of Waterloo","Minota Hagey Residence","200 University Avenue West ",Waterloo,ON,"N2L 3G1"
331,"University of Waterloo","Renison University College","240 Westmount Road North",Waterloo,ON,"N2L 3G4"
332,"University of Waterloo","Ron Eydt Village","PO Box 16610",Waterloo,ON,"N2J 4C1"
333,"University of Waterloo","St. Jerome's University College","290 University Avenue West",Waterloo,ON,"N2L 3E5"
334,"University of Waterloo","St. Jerome's J.R. Finn Residence","290 University Avenue West",Waterloo,ON,"N2L 3E5"
335,"University of Waterloo","St. Jerome Sweeney Hall","290 University Avenue West",Waterloo,ON,"N2L 3E5"
336,"University of Waterloo","St. Paul's College","190 Westmount Road",Waterloo,ON,"N2L 3G5"
337,"University of Waterloo","Village 1","PO Box 16460",Waterloo,ON,"N2J 4B6"
338,"University of Waterloo","Waterloo Court North","106 Seagram Drive ",Waterloo,ON,N2L3B8
339,"University of Waterloo","Waterloo Court South","104 Seagram Drive","Waterloo ",ON,"N2L 3B8"
340,"University of Waterloo","Wellesley Court North","155 University Avenue West",Waterloo,ON,"N2L 3E5"
341,"University of Waterloo","Wellesley Court South","157 University Avenue West",Waterloo,ON,"N2L 3E5"
342,"University of Waterloo","Wilmot Court North","163 University Avenue West",Waterloo,ON,"N2L 3E5"
343,"University of Waterloo","Wilmot Court South","161 University Avenue West",Waterloo,ON,"N2L 3E5"
344,"University of Waterloo","Woolwich Court North","100 Seagram Drive",Waterloo,ON,"N2L 3B8"
345,"University of Waterloo","Woolwich Court South","102 Seagram Drive",Waterloo,ON,"N2L 3B8"
346,"University of Waterloo","New Residence Building","165 University Avenue West",Waterloo,ON,"N2L 3E8"
347,"University of Western Ontario","Alumni House","1151 Richmond Street",London,ON,"N6A 5B7"
348,"University of Western Ontario","Ausable Hall","271, 273, 275, 277, 279, 281, 283, 285, 287 Windermere Road",London,ON,"N6G 2J7"
349,"University of Western Ontario","Bayfield Hall","292 Windermer Road",London,ON,"N6G 2J9"
350,"University of Western Ontario","Beaver Hall","271, 273, 275, 277, 279, 281, 283, 285, 287 Windermere Road",London,ON,"N6G 2J7"
351,"University of Western Ontario","Deleware Hall","1151 Richmond Street",London,ON,"N6A 5B7"
352,"University of Western Ontario","Elgin Hall","1151 Richmond Street",London,ON,"N6A 5B9"
353,"University of Western Ontario","Essex Hall","1200 Western Road",London,ON,"N6G 5E3"
354,"University of Western Ontario","Lampton Hall","1421 Western Road",London,ON,"N6J 4W4"
355,"University of Western Ontario","London Hall","1140 Western Road",London,ON,"N6G 0A3"
356,"University of Western Ontario","Medway-Sydenham Hall","1151 Richmond Street",London,ON,"N6A 5B9"
357,"University of Western Ontario","Ontario Hall","230 Sarnia Road",London,ON,"N6G 0N2"
358,"University of Western Ontario","Perth Hall","1125 Western Road",London,ON,"N6G 5K8"
359,"University of Western Ontario","Platt's Lanes Estates","401-453 Platt's Lane",London,ON,"N6G 3H1"
360,"University of Western Ontario","Platt's Lanes Estates","455-463 Platt's Lane",London,ON,"N6G 3H2"
361,"University of Western Ontario","Platt's Lanes Estates","400-462 Platt's Lane",London,ON,"N6G 1J2"
362,"University of Western Ontario","Platt's Lanes Estates","464-526 Platt's Lane",London,ON,"N6G 5E4"
363,"University of Western Ontario","Platt's Lanes Estates","528-530 Platt's Lane",London,ON,"N6G 3B1"
364,"University of Western Ontario","Platt's Lanes Estates","556-622 Platt's Lane",London,ON,"N6G 3B1"
365,"University of Western Ontario","Platt's Lanes Estates","624-698 Platt's Lane",London,ON,"N6G 3B2"
366,"University of Western Ontario","Platt's Lanes Estates","532-542 Platt's Lane",London,ON,"N6G 3A8"
367,"University of Western Ontario","Platt's Lanes Estates","544-554 Platt's Lane",London,ON,"N6G 3A9"
368,"University of Western Ontario","Platt's Lanes Estates","700-762 Platt's Lane",London,ON,"N6G 5E5"
369,"University of Western Ontario","Saugeen-Maitland Hall","289 Windermere Road",London,ON,"N6G 2J8"
370,"University of Western Ontario/Brecia University College","Clare Hall","271 Ramsay Road",London,ON,"N6G 1N7"
371,"University of Western Ontario/Huron University College","Benson House","1349 Western Road",London,ON,"N6G 1H3"
372,"University of Western Ontario/Huron University College","Brough Hall","1349 Western Road",London,ON,"N6G 1H3"
373,"University of Western Ontario/Huron University College","Cronyn House","1349 Western Road",London,ON,"N6G 1H3"
374,"University of Western Ontario/Huron University College","Hellmuth Hall","1349 Western Road",London,ON,"N6G 1H3"
375,"University of Western Ontario/Huron University College","Henderson House","1349 Western Road",London,ON,"N6G 1H3"
376,"University of Western Ontario/Huron University College","O'Neil, Ridley Hall Residence","1349 Western Road",London,ON,"N6G 1H3"
377,"University of Western Ontario/Huron University College","The Southwest Residence","1349 Western Road",London,ON,"N6G 1H3"
378,"University of Western Ontario/Huron University College","Young House","1349 Western Road",London,ON,"N6G 1H3"
379,"University of Western Ontario/King's Unviersity College","Dante Lenardon Hall","266 Epworth Avenue",London,ON,"N6A 2M3"
380,"University of Western Ontario/King's Unviersity College","Elizabeth A. 'Bessie' Labatt Hall","266 Epworth Avenue",London,ON,"N6A 2M3"
381,"University of Western Ontario/King's Unviersity College","King's Alumni Court","266 Epworth Avenue",London,ON,"N6A 2M3"
382,"University of Western Ontario/King's Unviersity College","Monsignor Wemple Building","266 Epworth Avenue",London,ON,"N6A 2M3"
383,"University of Western Ontario/King's Unviersity College","Town Houses 1-10","266 Epworth Avenue",London,ON,"N6A 2M3"
384,"University of Windsor","Alumni Hall","750 Sunset Avenue",Windsor,ON,"N9B 3P4"
385,"University of Windsor","Cartier Hall","2750 Wyandotte Street",Windsor,ON,"N9B 3P4"
386,"University of Windsor","Laurier Hall","470 Huron Line",Windsor,ON,"N9B 3P4"
387,"University of Windsor","MacDonald Hall","460 Huron Line",Windsor,ON,"N9B 3P4"
388,"University of Windsor/Canterbury College","Anselm House","2559 Riverside Drive",Windsor,ON,"N9B 1B3"
389,"University of Windsor/Canterbury College","Augustine House","172 Patricia Road",Windsor,ON,"N9B 3B9"
390,"University of Windsor/Canterbury College","Becket House","2585 Riverside Drive West",Windsor,ON,"N9B 1B3"
391,"University of Windsor/Canterbury College","Cranmer House","2541 Riverside Drive West",Windsor,ON,"N9B 1B3"
392,"University of Windsor/Canterbury College","Geoffrey Fisher Hall","270 Patricia Road",Windsor,ON,"N9B 3B9"
393,"University of Windsor/Canterbury College","Kingston House","240 Patricia Road",Windsor,ON,"N9B 3B9"
394,"University of Windsor/Canterbury College","Langton House","226 Patricia Road",Windsor,ON,"N9B 3B9"
395,"University of Windsor/Canterbury College","Laud House","145 Sunset Avenue",Windsor,ON,"N9B 3P4"
396,"University of Windsor/Canterbury College","Parker House","105 Sunset Avenue",Windsor,ON,"N9B 3P4"
397,"University of Windsor/Canterbury College","Rayson House","210 Patricia Road",Windsor,ON,"N9B 3B9"
398,"University of Windsor/Canterbury College","Wake House","165 Sunset Avenue",Windsor,ON,"N9B 3P4"
399,"University of Windsor/Canterbury College","Whitgift House","125 Sunset Avenue",Windsor,ON,"N9B 3P4"
400,"Upper Canada College",,"200 Lonsdale Road",Toronto,ON,"M4V 1W6"
401,"Venta Preparatory School",,"2013 Old Carp Road",Ottawa,ON,"K0A 1L0"
402,"Wilfrid Laurier University","Bouckaert Hall Residence","75 University Avenue West",Waterloo,ON,"N2L 3C5"
403,"Wilfrid Laurier University","Bricker Residence","44 Bricker Avenue",Waterloo,ON,"N2L 3B4"
404,"Wilfrid Laurier University","Bricker Residence","102 Albert Street",Waterloo,ON,"N2L 3S8"
405,"Wilfrid Laurier University","Bricker Residence","181, 183 Albert Street",Waterloo,ON,"N2L 3T4"
406,"Wilfrid Laurier University","Bricker Residence","195, 201, 205 Regina Street North",Waterloo,ON,"N2J 3B5"
407,"Wilfrid Laurier University","Clara Conrad Residence","25 University Avenue West",Waterloo,ON,"N2L 3C3"
408,"Wilfrid Laurier University","Conestogo House Residence","205 Sunview Street",Waterloo,ON,"N2L 3V7"
409,"Wilfrid Laurier University","Erza Bricker Residence","12, 14 Lodge Street",Waterloo,ON,"N2J 2V4"
410,"Wilfrid Laurier University","Ezra Bricker Residences","128, 130 Albert Street",Waterloo,ON,"N2L 3T1"
411,"Wilfrid Laurier University","Ezra Bricker Residences","148 Albert Street",Waterloo,ON,"N2L 3T3"
412,"Wilfrid Laurier University","Ezra Bricker Residences","33, 47 Bricker Avenue",Waterloo,ON,"N2L 3B5"
413,"Wilfrid Laurier University","Ezra Bricker Residences","28, 30 Ezra Avenue",Waterloo,ON,"N2L 3B1"
414,"Wilfrid Laurier University","Ezra Bricker Residences","61, 63, 65 Ezra Avenue",Waterloo,ON,"N2L 3A9"
415,"Wilfrid Laurier University","Ezra Bricker Residences","72 Hickory Street",Waterloo,ON,"N2L 3J4"
416,"Wilfrid Laurier University","Ezra Bricker Residences","16, 18 Lodge Street",Waterloo,ON,"N2L 2V4"
417,"Wilfrid Laurier University","Ezra Bricker Residences","83, 89 Seagram",Waterloo,ON,"N2L 3B6"
418,"Wilfrid Laurier University","Ezra Bricker Residences","93, 95 Seagram",Waterloo,ON,"N2L 3B6"
419,"Wilfrid Laurier University","Ezra-Bricker Student Apartments","19, 33, 39, 41, 43, 55 Ezra",Waterloo,ON,"N2L 3A9"
420,"Wilfrid Laurier University","Ezra-Bricker Student Apartments","52, 54, 60, 68 Ezra",Waterloo,ON,"N2L 3B2"
421,"Wilfrid Laurier University","Ezra-Bricker Student Apartments","53 Bricker Avenue",Waterloo,ON,"N2L 3B5"
422,"Wilfrid Laurier University","Ezra-Bricker Student Apartments","62 Hickory Street West, Waterloo",Waterloo,ON,"N2L 3J4"
423,"Wilfrid Laurier University","Grand River Hall","171 Colborne Street",Brantford,ON,"N3T 6C9"
424,"Wilfrid Laurier University","Heidelberg House Residence","190 Lester Street",Waterloo,ON,"N2L 3W4"
425,"Wilfrid Laurier University","King Street Residence","200 King Street North",Waterloo,ON,"N2J 4Z4"
426,"Wilfrid Laurier University","Lawyers Hall","76 Colborne Street",Brantford,ON,"N3T 2G5"
427,"Wilfrid Laurier University","Leupold Residence","75 University Avenue West",Waterloo,ON,"N2L 3C5"
428,"Wilfrid Laurier University","Little House Residence","75 University Avenue West",Waterloo,ON,"N2L 3C5"
429,"Wilfrid Laurier University","Lucy Marco Place","40 Queen Street",Brantford,ON,"N3T 3B2"
430,"Wilfrid Laurier University","Macdonald House Residence","75 University Avenue West",Waterloo,ON,"N2L 3C5"
431,"Wilfrid Laurier University","Nils Willison Residence","75 University Avenue West",Waterloo,ON,"N2L 3C5"
432,"Wilfrid Laurier University","Post House Residence","41 George Street",Brantford,ON,"N3T 2Y2"
433,"Wilfrid Laurier University","Regina Residence","209 Regina Street North",Waterloo,ON,"N2J 3B5"
434,"Wilfrid Laurier University","Regina Residence","80 Seagram Drive",Waterloo,ON,"N2L 3B7"
435,"Wilfrid Laurier University","Regina Residence","83, 89 Seagram Drive",Waterloo,ON,"N2L 3B6"
436,"Wilfrid Laurier University","St. Agatha House Residence","172, 174, 176, 178, 180, 182 Sunview Street",Waterloo,ON,"N2L 3V6"
437,"Wilfrid Laurier University","St. Clements House Residence","188 Lester Street",Waterloo,ON,"N2L 3W4"
438,"Wilfrid Laurier University","St. Jacobs House Residence","186, 188, 190, 192, 194, 196, 198, 200 Sunview Street",Waterloo,ON,"N2L 3V6"
439,"Wilfrid Laurier University","W. Euler Residence","75 University Avenue West",Waterloo,ON,"N2L 3C5"
440,"Wilfrid Laurier University","Waterloo College Hall","88 Seagram Drive",Waterloo,ON,"N2L 6N7"
441,"Wilfrid Laurier University","Wilkes House Residence","119 Darling Street",Brantford,ON,"N3T 2K8"
442,"York University",Calumet,"4700 Keele Street",Toronto,ON,"M3J 1P3"
443,"York University",Founders,"4700 Keele Street",Toronto,ON,"M3J 1P3"
444,"York University",Hilliard,"2275 Bayview Avenue",Toronto,ON,"M4N 3M6"
445,"York University","Norman Bethune","4700 Keele Street",Toronto,ON,"M3J 1P3"
446,"York University","Pond Road","4700 Keele Street",Toronto,ON,"M3J 1P3"
447,"York University",Stong,"4700 Keele Street",Toronto,ON,"M3J 1P3"
448,"York University","Tatham Hall","4700 Keele Street",Toronto,ON,"M3J 1P3"
449,"York University",Vanier,"4700 Keele Street",Toronto,ON,"M3J 1P3"
450,"York University",Winters,"4700 Keele Street",Toronto,ON,"M3J 1P3"
451,"York University",Wood,"2275 Bayview Avenue",Toronto,ON,"M4N 3M6"
452,"York University","York Apartments","90 Atkinson Road",Toronto,ON,"M3J 2S5"
453,"York University","York Apartments","2, 4 Passy Crescent",Toronto,ON,"M3J 3K8"
454,"York University","York Apartments","6, 8 Passy Crescent",Toronto,ON,"M3J 3K9"
455,"York University","York Apartments","10 Passy Crescent",Toronto,ON,"M3J 3L1"
456,"York University","York Apartments","12, 14 Passy Crescent",Toronto,ON,"M3J 3L2"
457,"York University","York Apartments","16, 18 Passy Crescent",Toronto,ON,"M3J 3L3"
458,"York University","York Apartments","320 Assiniboine Road",Toronto,ON,"M3J 1L1"
459,"York University","York Apartments","340 Assiniboine Road",Toronto,ON,"M3J 1L2"
460,"York University","York Apartments","360 Assiniboine Road",Toronto,ON,"M3J 1L3"
461,"York University","York Apartments","380 Assiniboine Road",Toronto,ON,"M3J 1L4"
